{
  "type": "FeatureCollection",
  "features": [
    {
      "type": "Feature",
      "properties": {
        "norad_id": 66646,
        "name": "CZ-2F R/B",
        "group": "last-30-days",
        "lat": 41.41840081635921,
        "lon": 144.9260138913784,
        "alt_km": 266.36807191774824,
        "timestamp": "2025-12-05T19:30:24.351984+00:00",
        "meta_object_name": "CZ-2F R/B",
        "meta_object_id": "2025-272B",
        "meta_epoch": "2025-11-26T11:17:54.506400",
        "meta_mean_motion": 16.01945612,
        "meta_eccentricity": 0.01210796,
        "meta_inclination": 41.4431,
        "meta_ra_of_asc_node": 114.9009,
        "meta_arg_of_pericenter": 133.7676,
        "meta_mean_anomaly": 227.3272,
        "meta_ephemeris_type": 0,
        "meta_classification_type": "U",
        "meta_norad_cat_id": 66646,
        "meta_element_set_no": 999,
        "meta_rev_at_epoch": 21,
        "meta_bstar": 0.00029319366,
        "meta_mean_motion_dot": 0.00449059,
        "meta_mean_motion_ddot": 7.567612e-06,
        "tle_line1": "1 66646U 25272B   25330.47076975  .00449059  75676-5  29319-3 0  9998",
        "tle_line2": "2 66646  41.4431 114.9009 0121079 133.7676 227.3272 16.01945612   217"
      },
      "geometry": {
        "type": "Point",
        "coordinates": [
          144.9260138913784,
          41.41840081635921
        ]
      }
    },
    {
      "type": "Feature",
      "properties": {
        "norad_id": 66647,
        "name": "COSMOS 2597 (RODNIK-S 22)",
        "group": "last-30-days",
        "lat": 65.42132755436499,
        "lon": 94.00937001614957,
        "alt_km": 1498.1450085029846,
        "timestamp": "2025-12-05T19:30:24.351994+00:00",
        "meta_object_name": "COSMOS 2597 (RODNIK-S 22)",
        "meta_object_id": "2025-273A",
        "meta_epoch": "2025-12-05T07:17:51.167616",
        "meta_mean_motion": 12.41951079,
        "meta_eccentricity": 0.00080713,
        "meta_inclination": 82.4983,
        "meta_ra_of_asc_node": 291.0668,
        "meta_arg_of_pericenter": 306.7254,
        "meta_mean_anomaly": 53.3083,
        "meta_ephemeris_type": 0,
        "meta_classification_type": "U",
        "meta_norad_cat_id": 66647,
        "meta_element_set_no": 999,
        "meta_rev_at_epoch": 121,
        "meta_bstar": -4.5564816e-05,
        "meta_mean_motion_dot": 4e-08,
        "meta_mean_motion_ddot": 0,
        "tle_line1": "1 66647U 25273A   25339.30406444  .00000004  00000+0 -45565-4 0  9998",
        "tle_line2": "2 66647  82.4983 291.0668 0008071 306.7254  53.3083 12.41951079  1215"
      },
      "geometry": {
        "type": "Point",
        "coordinates": [
          94.00937001614957,
          65.42132755436499
        ]
      }
    },
    {
      "type": "Feature",
      "properties": {
        "norad_id": 66648,
        "name": "COSMOS 2598 (RODNIK-S 23)",
        "group": "last-30-days",
        "lat": 54.80053418990869,
        "lon": 99.99818270907426,
        "alt_km": 1498.142086863896,
        "timestamp": "2025-12-05T19:30:24.352006+00:00",
        "meta_object_name": "COSMOS 2598 (RODNIK-S 23)",
        "meta_object_id": "2025-273B",
        "meta_epoch": "2025-12-04T06:06:47.884896",
        "meta_mean_motion": 12.42253119,
        "meta_eccentricity": 0.0008196,
        "meta_inclination": 82.5023,
        "meta_ra_of_asc_node": 291.7242,
        "meta_arg_of_pericenter": 297.6387,
        "meta_mean_anomaly": 62.386,
        "meta_ephemeris_type": 0,
        "meta_classification_type": "U",
        "meta_norad_cat_id": 66648,
        "meta_element_set_no": 999,
        "meta_rev_at_epoch": 108,
        "meta_bstar": -2.072e-05,
        "meta_mean_motion_dot": 7e-08,
        "meta_mean_motion_ddot": 0,
        "tle_line1": "1 66648U 25273B   25338.25472089  .00000007  00000+0 -20720-4 0  9999",
        "tle_line2": "2 66648  82.5023 291.7242 0008196 297.6387  62.3860 12.42253119  1089"
      },
      "geometry": {
        "type": "Point",
        "coordinates": [
          99.99818270907426,
          54.80053418990869
        ]
      }
    },
    {
      "type": "Feature",
      "properties": {
        "norad_id": 66649,
        "name": "COSMOS 2599 (RODNIK-S 24)",
        "group": "last-30-days",
        "lat": 74.78084136231546,
        "lon": 81.81486412147933,
        "alt_km": 1497.917653019812,
        "timestamp": "2025-12-05T19:30:24.352016+00:00",
        "meta_object_name": "COSMOS 2599 (RODNIK-S 24)",
        "meta_object_id": "2025-273C",
        "meta_epoch": "2025-12-05T07:20:58.861248",
        "meta_mean_motion": 12.41671807,
        "meta_eccentricity": 0.00083078,
        "meta_inclination": 82.5023,
        "meta_ra_of_asc_node": 291.0779,
        "meta_arg_of_pericenter": 316.9576,
        "meta_mean_anomaly": 43.0853,
        "meta_ephemeris_type": 0,
        "meta_classification_type": "U",
        "meta_norad_cat_id": 66649,
        "meta_element_set_no": 999,
        "meta_rev_at_epoch": 121,
        "meta_bstar": -1.6317304e-05,
        "meta_mean_motion_dot": 8e-08,
        "meta_mean_motion_ddot": 0,
        "tle_line1": "1 66649U 25273C   25339.30623682  .00000008  00000+0 -16317-4 0  9992",
        "tle_line2": "2 66649  82.5023 291.0779 0008307 316.9576  43.0853 12.41671807  1217"
      },
      "geometry": {
        "type": "Point",
        "coordinates": [
          81.81486412147933,
          74.78084136231546
        ]
      }
    },
    {
      "type": "Feature",
      "properties": {
        "norad_id": 66650,
        "name": "2025-274A",
        "group": "last-30-days",
        "lat": -17.53051256352933,
        "lon": 84.66592197859968,
        "alt_km": 596.7417810381785,
        "timestamp": "2025-12-05T19:30:24.352026+00:00",
        "meta_object_name": "2025-274A",
        "meta_object_id": "2025-274A",
        "meta_epoch": "2025-12-05T07:21:10.074240",
        "meta_mean_motion": 14.91621889,
        "meta_eccentricity": 0.00104221,
        "meta_inclination": 97.7388,
        "meta_ra_of_asc_node": 266.6309,
        "meta_arg_of_pericenter": 280.3247,
        "meta_mean_anomaly": 79.6797,
        "meta_ephemeris_type": 0,
        "meta_classification_type": "U",
        "meta_norad_cat_id": 66650,
        "meta_element_set_no": 999,
        "meta_rev_at_epoch": 129,
        "meta_bstar": 0.00032210359,
        "meta_mean_motion_dot": 3.181e-05,
        "meta_mean_motion_ddot": 0,
        "tle_line1": "1 66650U 25274A   25339.30636660  .00003181  00000+0  32210-3 0  9998",
        "tle_line2": "2 66650  97.7388 266.6309 0010422 280.3247  79.6797 14.91621889  1290"
      },
      "geometry": {
        "type": "Point",
        "coordinates": [
          84.66592197859968,
          -17.53051256352933
        ]
      }
    },
    {
      "type": "Feature",
      "properties": {
        "norad_id": 66651,
        "name": "2025-274B",
        "group": "last-30-days",
        "lat": -19.637696725660597,
        "lon": 84.34698519236005,
        "alt_km": 596.2610920755569,
        "timestamp": "2025-12-05T19:30:24.352039+00:00",
        "meta_object_name": "2025-274B",
        "meta_object_id": "2025-274B",
        "meta_epoch": "2025-12-05T07:20:38.363712",
        "meta_mean_motion": 14.91710922,
        "meta_eccentricity": 0.00106956,
        "meta_inclination": 97.7386,
        "meta_ra_of_asc_node": 266.6308,
        "meta_arg_of_pericenter": 279.7009,
        "meta_mean_anomaly": 80.3002,
        "meta_ephemeris_type": 0,
        "meta_classification_type": "U",
        "meta_norad_cat_id": 66651,
        "meta_element_set_no": 999,
        "meta_rev_at_epoch": 129,
        "meta_bstar": 0.00068570235,
        "meta_mean_motion_dot": 6.855e-05,
        "meta_mean_motion_ddot": 0,
        "tle_line1": "1 66651U 25274B   25339.30599958  .00006855  00000+0  68570-3 0  9996",
        "tle_line2": "2 66651  97.7386 266.6308 0010695 279.7009  80.3002 14.91710922  1293"
      },
      "geometry": {
        "type": "Point",
        "coordinates": [
          84.34698519236005,
          -19.637696725660597
        ]
      }
    },
    {
      "type": "Feature",
      "properties": {
        "norad_id": 66652,
        "name": "2025-274C",
        "group": "last-30-days",
        "lat": -24.395052459141514,
        "lon": 83.59496631484336,
        "alt_km": 596.533227612058,
        "timestamp": "2025-12-05T19:30:24.352050+00:00",
        "meta_object_name": "2025-274C",
        "meta_object_id": "2025-274C",
        "meta_epoch": "2025-12-05T07:19:24.887424",
        "meta_mean_motion": 14.91843597,
        "meta_eccentricity": 0.00104699,
        "meta_inclination": 97.739,
        "meta_ra_of_asc_node": 266.6325,
        "meta_arg_of_pericenter": 286.5271,
        "meta_mean_anomaly": 73.4797,
        "meta_ephemeris_type": 0,
        "meta_classification_type": "U",
        "meta_norad_cat_id": 66652,
        "meta_element_set_no": 999,
        "meta_rev_at_epoch": 129,
        "meta_bstar": 0.00045957845,
        "meta_mean_motion_dot": 4.59e-05,
        "meta_mean_motion_ddot": 0,
        "tle_line1": "1 66652U 25274C   25339.30514916  .00004590  00000+0  45958-3 0  9997",
        "tle_line2": "2 66652  97.7390 266.6325 0010469 286.5271  73.4797 14.91843597  1293"
      },
      "geometry": {
        "type": "Point",
        "coordinates": [
          83.59496631484336,
          -24.395052459141514
        ]
      }
    }
  ]
}